1 27424U 02022A   11281.39130564  .00000851  00000-0  19884-3 0   885
2 27424 098.2046 220.3934 0001319 088.6187 271.5150 14.57101469501550